NORAD_CAT_ID,OBJECT_NAME,OBJECT_TYPE,EPOCH,MEAN_MOTION,ECCENTRICITY,INCLINATION,RA_OF_ASC_NODE,ARG_OF_PERICENTER,MEAN_ANOMALY,BSTAR,MEAN_MOTION_DOT,MEAN_MOTION_DDOT,TLE_LINE0,TLE_LINE1,TLE_LINE2,SEMIMAJOR_AXIS,PERIOD,APOGEE,PERIGEE,DECAYED
52348.0,STARLINK-3829,PAYLOAD,2024-03-24 12:08:30,15.08850254,0.0001675,53.2165,169.7079,110.3714,249.7458,0.00015797,2.228e-05,0.0,0 STARLINK-3829,1 52348U 22045T   24084.50591242  .00002228  00000-0  15797-3 0  9997,2 52348  53.2165 169.7079 0001675 110.3714 249.7458 15.08850254107815,6917.849,95.437,540.873,538.555,0.0
52348.0,STARLINK-3829,PAYLOAD,2024-03-25 11:59:18,15.08843002,0.0001411,53.2175,165.2484,88.8299,271.2855,0.00018937,2.727e-05,0.0,0 STARLINK-3829,1 52348U 22045T   24085.49951558  .00002727  00000-0  18937-3 0  9999,2 52348  53.2175 165.2484 0001411  88.8299 271.2855 15.08843002107962,6917.871,95.437,540.712,538.76,0.0
52348.0,STARLINK-3829,PAYLOAD,2024-03-26 11:50:06,15.08826569,0.0001342,53.2153,160.7825,91.0224,269.0922,-0.00018317,-3.201e-05,0.0,0 STARLINK-3829,1 52348U 22045T   24086.49312553 -.00003201  00000-0 -18317-3 0  9998,2 52348  53.2153 160.7825 0001342  91.0224 269.0922 15.08826569108111,6917.921,95.438,540.715,538.858,0.0
52348.0,STARLINK-3829,PAYLOAD,2024-03-26 21:22:24,15.08831949,0.000148,53.2163,159.0004,98.1974,261.9186,-6.6115e-05,-1.34e-05,0.0,0 STARLINK-3829,1 52348U 22045T   24086.89056605 -.00001340  00000-0 -66115-4 0  9997,2 52348  53.2163 159.0004 0001480  98.1974 261.9186 15.08831949108172,6917.905,95.438,540.794,538.746,0.0
52348.0,STARLINK-3829,PAYLOAD,2024-03-27 11:40:52,15.08842537,0.000122,53.2158,156.3262,96.3638,263.7493,0.0003214,4.831e-05,0.0,0 STARLINK-3829,1 52348U 22045T   24087.48672275  .00004831  00000-0  32140-3 0  9996,2 52348  53.2158 156.3262 0001220  96.3638 263.7493 15.08842537108267,6917.873,95.437,540.582,538.894,0.0
52348.0,STARLINK-3829,PAYLOAD,2024-03-27 21:13:10,15.08858172,0.0001168,53.2163,154.539,75.7986,284.3136,0.00047729,7.32e-05,0.0,0 STARLINK-3829,1 52348U 22045T   24087.88415327  .00007320  00000-0  47729-3 0  9998,2 52348  53.2163 154.5390 0001168  75.7986 284.3136 15.08858172108325,6917.825,95.436,540.498,538.882,0.0
52348.0,STARLINK-3829,PAYLOAD,2024-03-28 03:34:44,15.08841941,0.0002439,53.2161,153.351,82.1449,277.982,0.00032922,4.955e-05,0.0,0 STARLINK-3829,1 52348U 22045T   24088.14912519  .00004955  00000-0  32922-3 0  9993,2 52348  53.2161 153.3510 0002439  82.1449 277.9820 15.08841941108360,6917.874,95.437,541.427,538.052,0.0
52348.0,STARLINK-3829,PAYLOAD,2024-03-28 11:31:40,15.0882733,0.0001315,53.2167,151.8676,104.7677,255.3461,0.00025661,3.797e-05,0.0,0 STARLINK-3829,1 52348U 22045T   24088.48033079  .00003797  00000-0  25661-3 0  9990,2 52348  53.2167 151.8676 0001315 104.7677 255.3461 15.08827330108411,6917.919,95.438,540.694,538.874,0.0
52348.0,STARLINK-3829,PAYLOAD,2024-03-28 21:03:58,15.0885055,0.0001159,53.2167,150.0795,89.2086,270.9039,0.00024832,3.667e-05,0.0,0 STARLINK-3829,1 52348U 22045T   24088.87775830  .00003667  00000-0  24832-3 0  9996,2 52348  53.2167 150.0795 0001159  89.2086 270.9039 15.08850550108471,6917.848,95.437,540.515,538.911,0.0
52348.0,STARLINK-3829,PAYLOAD,2024-03-29 01:50:08,15.08836707,0.0001267,53.2161,149.1863,85.6709,274.4428,-4.7242e-05,-1.04e-05,0.0,0 STARLINK-3829,1 52348U 22045T   24089.07648488 -.00001040  00000-0 -47242-4 0  9993,2 52348  53.2161 149.1863 0001267  85.6709 274.4428 15.08836707108505,6917.89,95.438,540.632,538.879,0.0
52348.0,STARLINK-3829,PAYLOAD,2024-03-29 12:57:49,15.08849437,0.0001424,53.2149,147.106,87.6268,272.4887,0.00012394,1.686e-05,0.0,0 STARLINK-3829,1 52348U 22045T   24089.54015915  .00001686  00000-0  12394-3 0  9991,2 52348  53.2149 147.1060 0001424  87.6268 272.4887 15.08849437108573,6917.852,95.437,540.702,538.731,0.0
52348.0,STARLINK-3829,PAYLOAD,2024-03-30 03:16:18,15.08842714,0.0001679,53.2148,144.4303,89.6253,270.4931,0.00021385,3.117e-05,0.0,0 STARLINK-3829,1 52348U 22045T   24090.13632278  .00003117  00000-0  21385-3 0  9996,2 52348  53.2148 144.4303 0001679  89.6253 270.4931 15.08842714108669,6917.872,95.437,540.899,538.576,0.0
52348.0,STARLINK-3829,PAYLOAD,2024-03-30 11:13:14,15.08841364,0.0001379,53.2146,142.9436,95.8653,264.2496,0.00015471,2.175e-05,0.0,0 STARLINK-3829,1 52348U 22045T   24090.46752323  .00002175  00000-0  15471-3 0  9998,2 52348  53.2146 142.9436 0001379  95.8653 264.2496 15.08841364108710,6917.876,95.437,540.695,538.787,0.0
52348.0,STARLINK-3829,PAYLOAD,2024-03-30 20:45:32,15.08848372,0.0001365,53.2148,141.1597,93.752,266.3628,0.00028547,4.259e-05,0.0,0 STARLINK-3829,1 52348U 22045T   24090.86496118  .00004259  00000-0  28547-3 0  9992,2 52348  53.2148 141.1597 0001365  93.7520 266.3628 15.08848372108778,6917.855,95.437,540.664,538.776,0.0
52348.0,STARLINK-3829,PAYLOAD,2024-03-31 09:28:37,15.08845711,0.0001485,53.2149,138.7798,101.9771,258.1387,0.000244,3.598e-05,0.0,0 STARLINK-3829,1 52348U 22045T   24091.39488202  .00003598  00000-0  24400-3 0  9995,2 52348  53.2149 138.7798 0001485 101.9771 258.1387 15.08845711108851,6917.863,95.437,540.755,538.701,0.0
52348.0,STARLINK-3829,PAYLOAD,2024-03-31 20:36:19,15.08848425,0.000162,53.2159,136.698,103.0201,257.0972,0.00023727,3.491e-05,0.0,0 STARLINK-3829,1 52348U 22045T   24091.85855936  .00003491  00000-0  23727-3 0  9991,2 52348  53.2159 136.6980 0001620 103.0201 257.0972 15.08848425108925,6917.855,95.437,540.84,538.599,0.0
52348.0,STARLINK-3829,PAYLOAD,2024-04-01 09:19:25,15.08836175,0.0001545,53.2159,134.3198,102.0732,258.0433,5.645e-05,6.1e-06,0.0,0 STARLINK-3829,1 52348U 22045T   24092.38848610  .00000610  00000-0  56450-4 0  9991,2 52348  53.2159 134.3198 0001545 102.0732 258.0433 15.08836175109007,6917.892,95.438,540.826,538.688,0.0
52348.0,STARLINK-3829,PAYLOAD,2024-04-02 09:10:12,15.08841006,0.0001542,53.2163,129.8613,95.2489,264.8679,0.00015123,2.12e-05,0.0,0 STARLINK-3829,1 52348U 22045T   24093.38208564  .00002120  00000-0  15123-3 0  9999,2 52348  53.2163 129.8613 0001542  95.2489 264.8679 15.08841006109154,6917.877,95.437,540.809,538.676,0.0
52348.0,STARLINK-3829,PAYLOAD,2024-04-03 09:00:59,15.08838899,0.0001528,53.2161,125.4004,97.1169,262.9997,0.00013437,1.851e-05,0.0,0 STARLINK-3829,1 52348U 22045T   24094.37568796  .00001851  00000-0  13437-3 0  9991,2 52348  53.2161 125.4004 0001528  97.1169 262.9997 15.08838899109303,6917.884,95.438,540.806,538.692,0.0
52348.0,STARLINK-3829,PAYLOAD,2024-04-03 18:33:18,15.0884198,0.0001459,53.2158,123.6157,95.4401,264.6757,0.00012807,1.751e-05,0.0,0 STARLINK-3829,1 52348U 22045T   24094.77312642  .00001751  00000-0  12807-3 0  9991,2 52348  53.2158 123.6157 0001459  95.4401 264.6757 15.08841980109365,6917.874,95.437,540.749,538.73,0.0
52348.0,STARLINK-3829,PAYLOAD,2024-04-04 08:51:46,15.08840568,0.0001499,53.2164,120.9393,95.7519,264.3644,7.8273e-05,9.58e-06,0.0,0 STARLINK-3829,1 52348U 22045T   24095.36928683  .00000958  00000-0  78273-4 0  9993,2 52348  53.2164 120.9393 0001499  95.7519 264.3644 15.08840568109454,6917.879,95.438,540.781,538.707,0.0
52348.0,STARLINK-3829,PAYLOAD,2024-04-04 18:24:05,15.08840998,0.0001482,53.2163,119.155,94.6876,265.4285,7.4212e-05,8.93e-06,0.0,0 STARLINK-3829,1 52348U 22045T   24095.76672644  .00000893  00000-0  74212-4 0  9997,2 52348  53.2163 119.1550 0001482  94.6876 265.4285 15.08840998109511,6917.877,95.437,540.768,538.717,0.0
52348.0,STARLINK-3829,PAYLOAD,2024-04-05 02:21:01,15.08836129,0.0001543,53.2178,117.6687,99.278,260.8387,9.2293e-05,1.181e-05,0.0,0 STARLINK-3829,1 52348U 22045T   24096.09793240  .00001181  00000-0  92293-4 0  9990,2 52348  53.2178 117.6687 0001543  99.2780 260.8387 15.08836129109562,6917.892,95.438,540.825,538.69,0.0
52348.0,STARLINK-3829,PAYLOAD,2024-04-05 08:42:34,15.08835236,0.0001533,53.2176,116.4792,98.3363,261.7803,6.3811e-05,7.28e-06,0.0,0 STARLINK-3829,1 52348U 22045T   24096.36289377  .00000728  00000-0  63811-4 0  9991,2 52348  53.2176 116.4792 0001533  98.3363 261.7803 15.08835236109606,6917.895,95.438,540.82,538.699,0.0
52348.0,STARLINK-3829,PAYLOAD,2024-04-06 10:08:43,15.08843916,0.0001507,53.2173,111.7208,95.5532,264.5632,9.7494e-05,1.264e-05,0.0,0 STARLINK-3829,1 52348U 22045T   24097.42272756  .00001264  00000-0  97494-4 0  9992,2 52348  53.2173 111.7208 0001507  95.5532 264.5632 15.08843916109763,6917.868,95.437,540.776,538.691,0.0
52348.0,STARLINK-3829,PAYLOAD,2024-04-06 18:05:39,15.08848167,0.0001518,53.2174,110.2324,84.7706,275.3459,0.00011822,1.594e-05,0.0,0 STARLINK-3829,1 52348U 22045T   24097.75392391  .00001594  00000-0  11822-3 0  9992,2 52348  53.2174 110.2324 0001518  84.7706 275.3459 15.08848167109818,6917.855,95.437,540.771,538.67,0.0
52348.0,STARLINK-3829,PAYLOAD,2024-04-07 08:24:07,15.08841047,0.0001429,53.2166,107.5555,91.483,268.6326,0.00010971,1.459e-05,0.0,0 STARLINK-3829,1 52348U 22045T   24098.35008930  .00001459  00000-0  10971-3 0  9996,2 52348  53.2166 107.5555 0001429  91.4830 268.6326 15.08841047109906,6917.877,95.437,540.731,538.754,0.0
52348.0,STARLINK-3829,PAYLOAD,2024-04-07 17:56:26,15.08844599,0.0001427,53.2167,105.7712,92.5083,267.6073,0.00011098,1.479e-05,0.0,0 STARLINK-3829,1 52348U 22045T   24098.74752680  .00001479  00000-0  11098-3 0  9990,2 52348  53.2167 105.7712 0001427  92.5083 267.6073 15.08844599109961,6917.866,95.437,540.719,538.744,0.0
52348.0,STARLINK-3829,PAYLOAD,2024-04-08 09:50:17,15.08841255,0.0001595,53.2176,102.7968,89.7905,270.327,3.794e-05,3.16e-06,0.0,0 STARLINK-3829,1 52348U 22045T   24099.40993051  .00000316  00000-0  37940-4 0  9997,2 52348  53.2176 102.7968 0001595  89.7905 270.3270 15.08841255110067,6917.877,95.437,540.845,538.638,0.0
52348.0,STARLINK-3829,PAYLOAD,2024-04-09 00:08:46,15.08833315,0.0001543,53.2179,100.1204,99.085,261.0317,0.00021181,3.084e-05,0.0,0 STARLINK-3829,1 52348U 22045T   24100.00609017  .00003084  00000-0  21181-3 0  9996,2 52348  53.2179 100.1204 0001543  99.0850 261.0317 15.08833315110158,6917.901,95.438,540.833,538.698,0.0
